{
    "links": {
        "self": "http://www.neowsapp.com/rest/v1/neo/3391854?api_key=iIulBulltgU6a56xZRHN4H3l9WmuAYTsLGpBGhQ2"
    },
    "id": "3391854",
    "neo_reference_id": "3391854",
    "name": "(2007 US51)",
    "designation": "2007 US51",
    "nasa_jpl_url": "http://ssd.jpl.nasa.gov/sbdb.cgi?sstr=3391854",
    "absolute_magnitude_h": 27.2,
    "estimated_diameter": {
        "kilometers": {
            "estimated_diameter_min": 0.0096506147,
            "estimated_diameter_max": 0.0215794305
        },
        "meters": {
            "estimated_diameter_min": 9.6506146958,
            "estimated_diameter_max": 21.5794304844
        },
        "miles": {
            "estimated_diameter_min": 0.0059966121,
            "estimated_diameter_max": 0.0134088323
        },
        "feet": {
            "estimated_diameter_min": 31.6621227185,
            "estimated_diameter_max": 70.7986587106
        }
    },
    "is_potentially_hazardous_asteroid": false,
    "close_approach_data": [
        {
            "close_approach_date": "1944-06-26",
            "close_approach_date_full": "1944-Jun-26 14:57",
            "epoch_date_close_approach": -805194180000,
            "relative_velocity": {
                "kilometers_per_second": "15.2903634196",
                "kilometers_per_hour": "55045.308310533",
                "miles_per_hour": "34203.0139332865"
            },
            "miss_distance": {
                "astronomical": "0.0169697455",
                "lunar": "6.6012309995",
                "kilometers": "2538637.781242085",
                "miles": "1577436.370567373"
            },
            "orbiting_body": "Earth"
        },
        {
            "close_approach_date": "2007-10-30",
            "close_approach_date_full": "2007-Oct-30 06:06",
            "epoch_date_close_approach": 1193724360000,
            "relative_velocity": {
                "kilometers_per_second": "15.3071193955",
                "kilometers_per_hour": "55105.6298237492",
                "miles_per_hour": "34240.4953757624"
            },
            "miss_distance": {
                "astronomical": "0.0014942056",
                "lunar": "0.5812459784",
                "kilometers": "223529.975102072",
                "miles": "138895.0858777136"
            },
            "orbiting_body": "Earth"
        },
        {
            "close_approach_date": "2007-10-30",
            "close_approach_date_full": "2007-Oct-30 10:57",
            "epoch_date_close_approach": 1193741820000,
            "relative_velocity": {
                "kilometers_per_second": "15.9517639624",
                "kilometers_per_hour": "57426.3502647707",
                "miles_per_hour": "35682.5008075738"
            },
            "miss_distance": {
                "astronomical": "0.0017097391",
                "lunar": "0.6650885099",
                "kilometers": "255773.327615717",
                "miles": "158930.1760902146"
            },
            "orbiting_body": "Moon"
        },
        {
            "close_approach_date": "2079-05-21",
            "close_approach_date_full": "2079-May-21 01:48",
            "epoch_date_close_approach": 3451859280000,
            "relative_velocity": {
                "kilometers_per_second": "13.2323271815",
                "kilometers_per_hour": "47636.3778533158",
                "miles_per_hour": "29599.392672245"
            },
            "miss_distance": {
                "astronomical": "0.0411149337",
                "lunar": "15.9937092093",
                "kilometers": "6150706.506711219",
                "miles": "3821871.8007200622"
            },
            "orbiting_body": "Mars"
        }
    ],
    "orbital_data": {
        "orbit_id": "13",
        "orbit_determination_date": "2017-04-06 09:05:29",
        "first_observation_date": "2007-10-31",
        "last_observation_date": "2007-11-07",
        "data_arc_in_days": 7,
        "observations_used": 37,
        "orbit_uncertainty": "8",
        "minimum_orbit_intersection": ".001317",
        "jupiter_tisserand_invariant": "3.379",
        "epoch_osculation": "2454407.5",
        "eccentricity": ".6322593609727157",
        "semi_major_axis": "2.191705357883747",
        "inclination": "1.472156385553275",
        "ascending_node_longitude": "39.37906072814209",
        "orbital_period": "1185.14552457925",
        "perihelion_distance": ".8059791288676921",
        "perihelion_argument": "297.9029749689313",
        "aphelion_distance": "3.577431586899802",
        "perihelion_time": "2454364.452253780766",
        "mean_anomaly": "13.07619049097455",
        "mean_motion": ".3037601649196684",
        "equinox": "J2000",
        "orbit_class": {
            "orbit_class_type": "APO",
            "orbit_class_description": "Near-Earth asteroid orbits which cross the Earth’s orbit similar to that of 1862 Apollo",
            "orbit_class_range": "a (semi-major axis) > 1.0 AU; q (perihelion) < 1.017 AU"
        }
    },
    "is_sentry_object": false
}